{"epoch":1784710044,"count":18256,"objects":[{"id":"40044","name":"LEMUR 1","type":"PAYLOAD","l1":"1 40044U 14033AL  26202.65125124  .00001145  00000-0  13692-3 0  9996","l2":"2 40044  97.7917 351.7008 0047252 326.4372  33.3852 14.85349700650584"},{"id":"42837","name":"LEMUR 2 GREENBERG","type":"PAYLOAD","l1":"1 42837U 17042N   26202.57764573  .00016449  00000-0  52917-3 0  9995","l2":"2 42837  97.3842  23.0726 0007538 233.1870 126.8681 15.32287483493658"},{"id":"42838","name":"LEMUR 2 ANDIS","type":"PAYLOAD","l1":"1 42838U 17042P   26202.45958079  .00017749  00000-0  50615-3 0  9996","l2":"2 42838  97.3694  23.2630 0007577 232.1029 127.9531 15.36092785493714"},{"id":"42839","name":"LEMUR 2 MONSON","type":"PAYLOAD","l1":"1 42839U 17042Q   26202.00747074  .00010789  00000-0  38721-3 0  9990","l2":"2 42839  97.4103  22.4228 0005711 221.0699 139.0112 15.28852397493334"},{"id":"42840","name":"LEMUR 2 FURIAUS","type":"PAYLOAD","l1":"1 42840U 17042R   26202.00668472  .00012240  00000-0  40768-3 0  9994","l2":"2 42840  97.3789  20.3821 0005679 304.6433  55.4272 15.31249211493380"},{"id":"42841","name":"LEMUR 2 PETERG","type":"PAYLOAD","l1":"1 42841U 17042S   26202.46413673  .00016129  00000-0  47413-3 0  9990","l2":"2 42841  97.4006  27.5861 0003798 194.2666 165.8471 15.35181644493698"},{"id":"42842","name":"LEMUR 2 DEMBITZ","type":"PAYLOAD","l1":"1 42842U 17042T   26202.02652405  .00011274  00000-0  37611-3 0  9996","l2":"2 42842  97.3839  23.4497 0005231 247.5353 112.5335 15.31221020493520"},{"id":"42845","name":"LEMUR 2 ZACHARY","type":"PAYLOAD","l1":"1 42845U 17042W   26202.49599283  .00049406  00000-0  78616-3 0  9992","l2":"2 42845  97.3581  34.9343 0002996 217.9840 142.1203 15.53139299494525"},{"id":"48269","name":"LEMUR 2 AMANDA-SVANTE","type":"PAYLOAD","l1":"1 48269U 21034B   26202.63931495  .00033264  00000-0  94118-3 0  9995","l2":"2 48269  97.5740 281.8819 0004761 129.5965 230.5699 15.36228653286343"},{"id":"48273","name":"LEMUR 2 SPECIAL K","type":"PAYLOAD","l1":"1 48273U 21034F   26202.23906829  .00254191  00000-0  15263-2 0  9996","l2":"2 48273  97.5626 291.8762 0006109 210.7980 149.2928 15.77027455287037"},{"id":"56970","name":"LEMUR 2 EMBRIONOVIS","type":"PAYLOAD","l1":"1 56970U 23084AQ  26202.35970605  .00010910  00000-0  29061-3 0  9993","l2":"2 56970  97.6331 347.8997 0008806 183.9306 176.1871 15.38334823172930"},{"id":"57391","name":"LEMUR 2 DEVERILL-M-T","type":"PAYLOAD","l1":"1 57391U 23100F   26202.39870927  .00020567  00000-0  49589-3 0  9996","l2":"2 57391  99.4447 251.0826 0004830 270.9536  89.1151 15.41291410166517"},{"id":"58259","name":"LEMUR 2 BASS","type":"PAYLOAD","l1":"1 58259U 23174D   26202.24278477  .00013243  00000-0  29090-3 0  9995","l2":"2 58259  97.3836 287.4557 0007228  60.0029 300.1936 15.44124123150613"},{"id":"58336","name":"LEMUR 2 JK0903EM1407","type":"PAYLOAD","l1":"1 58336U 23174CJ  26202.49717429  .00026198  00000-0  41647-3 0  9998","l2":"2 58336  97.3916 293.9761 0003002   6.7470 353.3823 15.53295497151057"},{"id":"58340","name":"LEMUR 2 MJR092620","type":"PAYLOAD","l1":"1 58340U 23174CN  26202.40982217  .00015823  00000-0  32577-3 0  9998","l2":"2 58340  97.3965 293.0976 0004714   7.1100 353.0215 15.46011516150939"},{"id":"58899","name":"LEMUR 2 NIMBUS2000","type":"PAYLOAD","l1":"1 58899U 24022A   26202.11193926  .00016730  00000-0  40331-3 0  9994","l2":"2 58899  97.4083  52.5660 0008116   7.9726 352.1648 15.41275158137495"},{"id":"58900","name":"LEMUR 2 VALHALLA","type":"PAYLOAD","l1":"1 58900U 24022B   26202.11929081  .00011964  00000-0  29564-3 0  9995","l2":"2 58900  97.4082  52.5373 0008599   3.2856 356.8445 15.40602327137493"},{"id":"58903","name":"LEMUR 2 CAEL","type":"PAYLOAD","l1":"1 58903U 24022E   26202.16451991  .00013425  00000-0  31681-3 0  9990","l2":"2 58903  97.4059  53.5807 0006532 346.7090  13.3984 15.41983052137573"},{"id":"59146","name":"LEMUR 2 JOHNNYTRUONG","type":"PAYLOAD","l1":"1 59146U 24043BA  26202.36505373  .00040411  00000-0  44704-3 0  9994","l2":"2 59146  97.5399 356.2569 0003717  74.4334 285.7334 15.62913525133376"},{"id":"60471","name":"LEMUR 2 TOMATOKECHUP","type":"PAYLOAD","l1":"1 60471U 24149D   26202.17067799  .00008094  00000-0  22832-3 0  9997","l2":"2 60471  97.3785 284.3180 0003443 111.4342 248.7269 15.36660114107385"},{"id":"60533","name":"LEMUR 2 STELLA","type":"PAYLOAD","l1":"1 60533U 24149BT  26202.49139980  .00009934  00000-0  57474-3 0  9997","l2":"2 60533  97.6726 285.1114 0001435 121.1366 239.0005 15.12456303105680"},{"id":"60536","name":"LEMUR 2 MARHISYAM","type":"PAYLOAD","l1":"1 60536U 24149BW  26202.48479103  .00008440  00000-0  49723-3 0  9992","l2":"2 60536  97.6870 285.5876 0002170  59.8022 300.3422 15.11853238105665"},{"id":"60576","name":"LEMUR 2 AHMED-ASRAR","type":"PAYLOAD","l1":"1 60576U 24149DN  26202.22045321  .00008156  00000-0  46065-3 0  9999","l2":"2 60576  97.6995 287.5489 0001732 180.2350 179.8880 15.13387282105711"},{"id":"60577","name":"LEMUR 2 LLOYD","type":"PAYLOAD","l1":"1 60577U 24149DP  26202.51116047  .00009573  00000-0  59556-3 0  9999","l2":"2 60577  97.6732 283.6712 0004187  54.5132 305.6487 15.09823724105572"},{"id":"60578","name":"LEMUR 2 SQUIRRELCOMM","type":"PAYLOAD","l1":"1 60578U 24149DQ  26201.97845926  .00004986  00000-0  33279-3 0  9991","l2":"2 60578  97.6699 282.7893 0004012 298.5482  61.5341 15.07484012105499"},{"id":"60579","name":"LEMUR 2 SIERRINI","type":"PAYLOAD","l1":"1 60579U 24149DR  26202.51477446  .00010409  00000-0  61633-3 0  9993","l2":"2 60579  97.6829 285.2731 0006058  73.7212 286.4684 15.11595047105641"},{"id":"62694","name":"LEMUR 2 WILSON","type":"PAYLOAD","l1":"1 62694U 25009CP  26202.22451383  .00001714  00000-0  16081-3 0  9995","l2":"2 62694  97.7015 280.0923 0001600 288.3880  71.7167 14.95291662 82448"},{"id":"62696","name":"LEMUR 2 STAR-FOX","type":"PAYLOAD","l1":"1 62696U 25009CR  26202.18575034  .00005773  00000-0  43477-3 0  9990","l2":"2 62696  97.6900 283.5498 0001583  17.9972 342.1308 15.02890489 82662"},{"id":"62699","name":"LEMUR 2 ARIANNA","type":"PAYLOAD","l1":"1 62699U 25009CU  26202.18420592  .00006042  00000-0  45470-3 0  9996","l2":"2 62699  97.6841 283.2958 0001893  27.8546 332.2780 15.02894847 82664"},{"id":"62706","name":"LEMUR 2 ALISIA","type":"PAYLOAD","l1":"1 62706U 25009DB  26202.22181207  .00005720  00000-0  42691-3 0  9991","l2":"2 62706  97.6959 284.1703 0004934 113.1534 247.0211 15.03228747105272"}]}